1 40894U 15047A   25333.23120201  .00001298  00000+0  16736-3 0  9994
2 40894  97.6561  12.7695 0029049  76.7374 283.7077 14.82368379550565
